{
    "links": {
        "self": "http://www.neowsapp.com/rest/v1/neo/3773928?api_key=iIulBulltgU6a56xZRHN4H3l9WmuAYTsLGpBGhQ2"
    },
    "id": "3773928",
    "neo_reference_id": "3773928",
    "name": "(2017 GK7)",
    "designation": "2017 GK7",
    "nasa_jpl_url": "http://ssd.jpl.nasa.gov/sbdb.cgi?sstr=3773928",
    "absolute_magnitude_h": 23.8,
    "estimated_diameter": {
        "kilometers": {
            "estimated_diameter_min": 0.046190746,
            "estimated_diameter_max": 0.1032856481
        },
        "meters": {
            "estimated_diameter_min": 46.1907460282,
            "estimated_diameter_max": 103.2856480504
        },
        "miles": {
            "estimated_diameter_min": 0.0287015901,
            "estimated_diameter_max": 0.0641787064
        },
        "feet": {
            "estimated_diameter_min": 151.544447199,
            "estimated_diameter_max": 338.8636855496
        }
    },
    "is_potentially_hazardous_asteroid": false,
    "close_approach_data": [
        {
            "close_approach_date": "1900-03-15",
            "close_approach_date_full": "1900-Mar-15 08:27",
            "epoch_date_close_approach": -2202651180000,
            "relative_velocity": {
                "kilometers_per_second": "18.9004175889",
                "kilometers_per_hour": "68041.5033201973",
                "miles_per_hour": "42278.3441047082"
            },
            "miss_distance": {
                "astronomical": "0.3988756364",
                "lunar": "155.1626225596",
                "kilometers": "59670945.600334468",
                "miles": "37077806.2753249384"
            },
            "orbiting_body": "Earth"
        },
        {
            "close_approach_date": "2017-04-19",
            "close_approach_date_full": "2017-Apr-19 11:42",
            "epoch_date_close_approach": 1492602120000,
            "relative_velocity": {
                "kilometers_per_second": "9.7831452735",
                "kilometers_per_hour": "35219.3229844308",
                "miles_per_hour": "21883.917662187"
            },
            "miss_distance": {
                "astronomical": "0.0851707995",
                "lunar": "33.1314410055",
                "kilometers": "12741370.191397065",
                "miles": "7917120.315186897"
            },
            "orbiting_body": "Earth"
        }
    ],
    "orbital_data": {
        "orbit_id": "4",
        "orbit_determination_date": "2017-04-26 06:21:19",
        "first_observation_date": "2017-03-29",
        "last_observation_date": "2017-04-25",
        "data_arc_in_days": 27,
        "observations_used": 54,
        "orbit_uncertainty": "7",
        "minimum_orbit_intersection": ".0721419",
        "jupiter_tisserand_invariant": "3.367",
        "epoch_osculation": "2459000.5",
        "eccentricity": ".535796734907135",
        "semi_major_axis": "2.282763589001672",
        "inclination": "13.57031633048064",
        "ascending_node_longitude": "17.73976590511268",
        "orbital_period": "1259.765852273998",
        "perihelion_distance": "1.059666311449683",
        "perihelion_argument": "199.9215692468473",
        "aphelion_distance": "3.505860866553662",
        "perihelion_time": "2459132.348003626986",
        "mean_anomaly": "322.3221400865601",
        "mean_motion": ".2857673903052425",
        "equinox": "J2000",
        "orbit_class": {
            "orbit_class_type": "AMO",
            "orbit_class_description": "Near-Earth asteroid orbits similar to that of 1221 Amor",
            "orbit_class_range": "1.017 AU < q (perihelion) < 1.3 AU"
        }
    },
    "is_sentry_object": false
}